FLOCK 4H-33             
1 66736U 25276BY  26187.15241447  .00007228  00000+0  32787-3 0  9990
2 66736  97.4209 260.7728 0001854 187.7455 172.3753 15.21116156 33326
FLOCK 4H-34             
1 66737U 25276BZ  26187.20306937  .00007509  00000+0  34406-3 0  9995
2 66737  97.4225 260.7490 0001631 198.7008 161.4168 15.20755958 32573
FLOCK 4H-35             
1 66738U 25276CA  26187.17950617  .00007021  00000+0  32078-3 0  9994
2 66738  97.4185 260.6667 0001769 171.4969 188.6296 15.20877274 32614
FLOCK 4H-36             
1 66739U 25276CB  26187.15085776  .00006901  00000+0  31750-3 0  9990
2 66739  97.4235 260.6909 0001559 219.7179 140.3942 15.20644148 33319
