{"fetched_at":"2026-07-06T18:35:16.154Z","source":"https://celestrak.org/NORAD/elements/gp.php?GROUP=planet&FORMAT=JSON","constellation":"superdove","records":[{"OBJECT_NAME":"FLOCK 4H-33","OBJECT_ID":"2025-276BY","EPOCH":"2026-07-06T03:39:28.610208","CLASSIFICATION_TYPE":"U","MEAN_MOTION":15.21116156,"ECCENTRICITY":0.00018543,"INCLINATION":97.4209,"RA_OF_ASC_NODE":260.7728,"ARG_OF_PERICENTER":187.7455,"MEAN_ANOMALY":172.3753,"EPHEMERIS_TYPE":0,"NORAD_CAT_ID":66736,"ELEMENT_SET_NO":999,"REV_AT_EPOCH":3332,"BSTAR":0.00032786933,"MEAN_MOTION_DOT":0.00007228,"MEAN_MOTION_DDOT":0},{"OBJECT_NAME":"FLOCK 4H-34","OBJECT_ID":"2025-276BZ","EPOCH":"2026-07-06T04:52:25.193568","CLASSIFICATION_TYPE":"U","MEAN_MOTION":15.20755958,"ECCENTRICITY":0.00016311,"INCLINATION":97.4225,"RA_OF_ASC_NODE":260.749,"ARG_OF_PERICENTER":198.7008,"MEAN_ANOMALY":161.4168,"EPHEMERIS_TYPE":0,"NORAD_CAT_ID":66737,"ELEMENT_SET_NO":999,"REV_AT_EPOCH":3257,"BSTAR":0.00034405815,"MEAN_MOTION_DOT":0.00007509,"MEAN_MOTION_DDOT":0},{"OBJECT_NAME":"FLOCK 4H-35","OBJECT_ID":"2025-276CA","EPOCH":"2026-07-06T04:18:29.333088","CLASSIFICATION_TYPE":"U","MEAN_MOTION":15.20877274,"ECCENTRICITY":0.00017695,"INCLINATION":97.4185,"RA_OF_ASC_NODE":260.6667,"ARG_OF_PERICENTER":171.4969,"MEAN_ANOMALY":188.6296,"EPHEMERIS_TYPE":0,"NORAD_CAT_ID":66738,"ELEMENT_SET_NO":999,"REV_AT_EPOCH":3261,"BSTAR":0.00032078255,"MEAN_MOTION_DOT":0.00007021,"MEAN_MOTION_DDOT":0},{"OBJECT_NAME":"FLOCK 4H-36","OBJECT_ID":"2025-276CB","EPOCH":"2026-07-06T03:37:14.110464","CLASSIFICATION_TYPE":"U","MEAN_MOTION":15.20644148,"ECCENTRICITY":0.00015591,"INCLINATION":97.4235,"RA_OF_ASC_NODE":260.6909,"ARG_OF_PERICENTER":219.7179,"MEAN_ANOMALY":140.3942,"EPHEMERIS_TYPE":0,"NORAD_CAT_ID":66739,"ELEMENT_SET_NO":999,"REV_AT_EPOCH":3331,"BSTAR":0.00031749881,"MEAN_MOTION_DOT":0.00006901,"MEAN_MOTION_DDOT":0}]}
